ONEWEB-0058             
1 45161U 20008AG  26042.98436171 -.00000279  00000+0 -83519-3 0  9998
2 45161  87.8751  61.2257 0001769  98.7144 261.4184 13.10369522292027
ONEWEB-0059             
1 45162U 20008AH  26043.13362346 -.00000119  00000+0 -37763-3 0  9992
2 45162  87.8746  61.1969 0001760  93.5999 266.5330 13.10368872291949
ONEWEB-0062             
1 45163U 20008AJ  26043.08299546 -.00000477  00000+0 -14021-2 0  9996
2 45163  87.8765  61.1870 0001755 106.1189 254.0132 13.10375263291807
ONEWEB-0065             
1 45164U 20008AK  26043.03723019  .00000589  00000+0  16521-2 0  9998
2 45164  87.8752  61.2071 0002107  84.5438 275.5930 13.10372204291497
ONEWEB-0066             
1 45424U 20020A   26043.01998954 -.00000320  00000+0 -93970-3 0  9990
2 45424  87.8828  45.9661 0001669  87.3061 272.8258 13.11414971286271
ONEWEB-0067             
1 45425U 20020B   26042.98114608  .00000450  00000+0  12329-2 0  9992
2 45425  87.8844  45.8804 0001881  81.9392 278.1950 13.11419117286322
ONEWEB-0080             
1 45426U 20020C   26042.99034868  .00000516  00000+0  14187-2 0  9990
2 45426  87.8835  45.9698 0001761 101.2772 258.8554 13.11419399286293
ONEWEB-0090             
1 45427U 20020D   26043.00995872  .00000098  00000+0  24108-3 0  9995
2 45427  87.8823  45.9679 0001843  89.2506 270.8833 13.11415880286263
ONEWEB-0061             
1 45428U 20020E   26043.04190013 -.00000320  00000+0 -93898-3 0  9996
2 45428  87.8826  45.9454 0001810  85.9203 274.2132 13.11416951286225
ONEWEB-0081             
1 45429U 20020F   26043.02337166 -.00000340  00000+0 -99606-3 0  9992
2 45429  87.8828  45.9653 0001716  82.4573 277.6750 13.11416430286333
ONEWEB-0069             
1 45430U 20020G   26043.01236761  .00000049  00000+0  10358-3 0  9993
2 45430  87.8827  45.9630 0001825  87.6001 272.5336 13.11414461286261
ONEWEB-0031             
1 45431U 20020H   26042.98439356  .00000632  00000+0  17460-2 0  9992
2 45431  87.8832  45.9867 0001939  95.2858 264.8491 13.11419235286249
ONEWEB-0027             
1 45432U 20020J   26043.01118709  .00000022  00000+0  24347-4 0  9991
2 45432  87.9114  30.7056 0002154  94.5505 265.5873 13.17649869289875
ONEWEB-0064             
1 45433U 20020K   26042.98269743  .00000520  00000+0  14300-2 0  9991
2 45433  87.8824  45.9786 0001947  91.6428 268.4923 13.11418624286278
ONEWEB-0018             
1 45434U 20020L   26043.01490058 -.00000088  00000+0 -28491-3 0  9990
2 45434  87.8828  45.9674 0001672  90.0534 270.0785 13.11413861286223
ONEWEB-0083             
1 45435U 20020M   26043.00558829  .00000380  00000+0  10376-2 0  9996
2 45435  87.8828  45.9567 0001818  91.5720 268.5617 13.11416691286264
ONEWEB-0095             
1 45436U 20020N   26042.99640626  .00000546  00000+0  15034-2 0  9991
2 45436  87.8832  45.9673 0002592  86.3001 273.8423 13.11416632286261
