[{"OBJECT_NAME":"ONEWEB-0058","OBJECT_ID":"2020-008AG","EPOCH":"2026-02-11T23:37:28.851744","MEAN_MOTION":13.10369522,"ECCENTRICITY":0.0001769,"INCLINATION":87.8751,"RA_OF_ASC_NODE":61.2257,"ARG_OF_PERICENTER":98.7144,"MEAN_ANOMALY":261.4184,"EPHEMERIS_TYPE":0,"CLASSIFICATION_TYPE":"U","NORAD_CAT_ID":45161,"ELEMENT_SET_NO":999,"REV_AT_EPOCH":29202,"BSTAR":-0.00083519,"MEAN_MOTION_DOT":-2.79e-6,"MEAN_MOTION_DDOT":0},{"OBJECT_NAME":"ONEWEB-0059","OBJECT_ID":"2020-008AH","EPOCH":"2026-02-12T03:12:25.066944","MEAN_MOTION":13.10368872,"ECCENTRICITY":0.00017603,"INCLINATION":87.8746,"RA_OF_ASC_NODE":61.1969,"ARG_OF_PERICENTER":93.5999,"MEAN_ANOMALY":266.533,"EPHEMERIS_TYPE":0,"CLASSIFICATION_TYPE":"U","NORAD_CAT_ID":45162,"ELEMENT_SET_NO":999,"REV_AT_EPOCH":29194,"BSTAR":-0.00037763238,"MEAN_MOTION_DOT":-1.19e-6,"MEAN_MOTION_DDOT":0},{"OBJECT_NAME":"ONEWEB-0062","OBJECT_ID":"2020-008AJ","EPOCH":"2026-02-12T01:59:30.807744","MEAN_MOTION":13.10375263,"ECCENTRICITY":0.00017555,"INCLINATION":87.8765,"RA_OF_ASC_NODE":61.187,"ARG_OF_PERICENTER":106.1189,"MEAN_ANOMALY":254.0132,"EPHEMERIS_TYPE":0,"CLASSIFICATION_TYPE":"U","NORAD_CAT_ID":45163,"ELEMENT_SET_NO":999,"REV_AT_EPOCH":29180,"BSTAR":-0.0014020817,"MEAN_MOTION_DOT":-4.77e-6,"MEAN_MOTION_DDOT":0},{"OBJECT_NAME":"ONEWEB-0065","OBJECT_ID":"2020-008AK","EPOCH":"2026-02-12T00:53:36.688416","MEAN_MOTION":13.10372204,"ECCENTRICITY":0.00021073,"INCLINATION":87.8752,"RA_OF_ASC_NODE":61.2071,"ARG_OF_PERICENTER":84.5438,"MEAN_ANOMALY":275.593,"EPHEMERIS_TYPE":0,"CLASSIFICATION_TYPE":"U","NORAD_CAT_ID":45164,"ELEMENT_SET_NO":999,"REV_AT_EPOCH":29149,"BSTAR":0.0016520995,"MEAN_MOTION_DOT":5.89e-6,"MEAN_MOTION_DDOT":0},{"OBJECT_NAME":"ONEWEB-0066","OBJECT_ID":"2020-020A","EPOCH":"2026-02-12T00:28:47.096256","MEAN_MOTION":13.11414971,"ECCENTRICITY":0.00016693,"INCLINATION":87.8828,"RA_OF_ASC_NODE":45.9661,"ARG_OF_PERICENTER":87.3061,"MEAN_ANOMALY":272.8258,"EPHEMERIS_TYPE":0,"CLASSIFICATION_TYPE":"U","NORAD_CAT_ID":45424,"ELEMENT_SET_NO":999,"REV_AT_EPOCH":28627,"BSTAR":-0.00093969616,"MEAN_MOTION_DOT":-3.2e-6,"MEAN_MOTION_DDOT":0},{"OBJECT_NAME":"ONEWEB-0067","OBJECT_ID":"2020-020B","EPOCH":"2026-02-11T23:32:51.021312","MEAN_MOTION":13.11419117,"ECCENTRICITY":0.0001881,"INCLINATION":87.8844,"RA_OF_ASC_NODE":45.8804,"ARG_OF_PERICENTER":81.9392,"MEAN_ANOMALY":278.195,"EPHEMERIS_TYPE":0,"CLASSIFICATION_TYPE":"U","NORAD_CAT_ID":45425,"ELEMENT_SET_NO":999,"REV_AT_EPOCH":28632,"BSTAR":0.0012329,"MEAN_MOTION_DOT":4.5e-6,"MEAN_MOTION_DDOT":0},{"OBJECT_NAME":"ONEWEB-0080","OBJECT_ID":"2020-020C","EPOCH":"2026-02-11T23:46:06.125952","MEAN_MOTION":13.11419399,"ECCENTRICITY":0.0001761,"INCLINATION":87.8835,"RA_OF_ASC_NODE":45.9698,"ARG_OF_PERICENTER":101.2772,"MEAN_ANOMALY":258.8554,"EPHEMERIS_TYPE":0,"CLASSIFICATION_TYPE":"U","NORAD_CAT_ID":45426,"ELEMENT_SET_NO":999,"REV_AT_EPOCH":28629,"BSTAR":0.0014187,"MEAN_MOTION_DOT":5.16e-6,"MEAN_MOTION_DDOT":0},{"OBJECT_NAME":"ONEWEB-0090","OBJECT_ID":"2020-020D","EPOCH":"2026-02-12T00:14:20.433408","MEAN_MOTION":13.1141588,"ECCENTRICITY":0.00018433,"INCLINATION":87.8823,"RA_OF_ASC_NODE":45.9679,"ARG_OF_PERICENTER":89.2506,"MEAN_ANOMALY":270.8833,"EPHEMERIS_TYPE":0,"CLASSIFICATION_TYPE":"U","NORAD_CAT_ID":45427,"ELEMENT_SET_NO":999,"REV_AT_EPOCH":28626,"BSTAR":0.00024108278,"MEAN_MOTION_DOT":9.8e-7,"MEAN_MOTION_DDOT":0},{"OBJECT_NAME":"ONEWEB-0061","OBJECT_ID":"2020-020E","EPOCH":"2026-02-12T01:00:20.171232","MEAN_MOTION":13.11416951,"ECCENTRICITY":0.00018105,"INCLINATION":87.8826,"RA_OF_ASC_NODE":45.9454,"ARG_OF_PERICENTER":85.9203,"MEAN_ANOMALY":274.2132,"EPHEMERIS_TYPE":0,"CLASSIFICATION_TYPE":"U","NORAD_CAT_ID":45428,"ELEMENT_SET_NO":999,"REV_AT_EPOCH":28622,"BSTAR":-0.0009389841,"MEAN_MOTION_DOT":-3.2e-6,"MEAN_MOTION_DDOT":0},{"OBJECT_NAME":"ONEWEB-0081","OBJECT_ID":"2020-020F","EPOCH":"2026-02-12T00:33:39.311424","MEAN_MOTION":13.1141643,"ECCENTRICITY":0.00017169,"INCLINATION":87.8828,"RA_OF_ASC_NODE":45.9653,"ARG_OF_PERICENTER":82.4573,"MEAN_ANOMALY":277.675,"EPHEMERIS_TYPE":0,"CLASSIFICATION_TYPE":"U","NORAD_CAT_ID":45429,"ELEMENT_SET_NO":999,"REV_AT_EPOCH":28633,"BSTAR":-0.00099606279,"MEAN_MOTION_DOT":-3.4e-6,"MEAN_MOTION_DDOT":0},{"OBJECT_NAME":"ONEWEB-0069","OBJECT_ID":"2020-020G","EPOCH":"2026-02-12T00:17:48.561504","MEAN_MOTION":13.11414461,"ECCENTRICITY":0.00018257,"INCLINATION":87.8827,"RA_OF_ASC_NODE":45.963,"ARG_OF_PERICENTER":87.6001,"MEAN_ANOMALY":272.5336,"EPHEMERIS_TYPE":0,"CLASSIFICATION_TYPE":"U","NORAD_CAT_ID":45430,"ELEMENT_SET_NO":999,"REV_AT_EPOCH":28626,"BSTAR":0.00010357998,"MEAN_MOTION_DOT":4.9e-7,"MEAN_MOTION_DDOT":0},{"OBJECT_NAME":"ONEWEB-0031","OBJECT_ID":"2020-020H","EPOCH":"2026-02-11T23:37:31.603584","MEAN_MOTION":13.11419235,"ECCENTRICITY":0.0001939,"INCLINATION":87.8832,"RA_OF_ASC_NODE":45.9867,"ARG_OF_PERICENTER":95.2858,"MEAN_ANOMALY":264.8491,"EPHEMERIS_TYPE":0,"CLASSIFICATION_TYPE":"U","NORAD_CAT_ID":45431,"ELEMENT_SET_NO":999,"REV_AT_EPOCH":28624,"BSTAR":0.001746,"MEAN_MOTION_DOT":6.32e-6,"MEAN_MOTION_DDOT":0},{"OBJECT_NAME":"ONEWEB-0027","OBJECT_ID":"2020-020J","EPOCH":"2026-02-12T00:16:06.564576","MEAN_MOTION":13.17649869,"ECCENTRICITY":0.00021546,"INCLINATION":87.9114,"RA_OF_ASC_NODE":30.7056,"ARG_OF_PERICENTER":94.5505,"MEAN_ANOMALY":265.5873,"EPHEMERIS_TYPE":0,"CLASSIFICATION_TYPE":"U","NORAD_CAT_ID":45432,"ELEMENT_SET_NO":999,"REV_AT_EPOCH":28987,"BSTAR":2.4346523e-5,"MEAN_MOTION_DOT":2.2e-7,"MEAN_MOTION_DDOT":0},{"OBJECT_NAME":"ONEWEB-0064","OBJECT_ID":"2020-020K","EPOCH":"2026-02-11T23:35:05.057952","MEAN_MOTION":13.11418624,"ECCENTRICITY":0.0001947,"INCLINATION":87.8824,"RA_OF_ASC_NODE":45.9786,"ARG_OF_PERICENTER":91.6428,"MEAN_ANOMALY":268.4923,"EPHEMERIS_TYPE":0,"CLASSIFICATION_TYPE":"U","NORAD_CAT_ID":45433,"ELEMENT_SET_NO":999,"REV_AT_EPOCH":28627,"BSTAR":0.00143,"MEAN_MOTION_DOT":5.2e-6,"MEAN_MOTION_DDOT":0},{"OBJECT_NAME":"ONEWEB-0018","OBJECT_ID":"2020-020L","EPOCH":"2026-02-12T00:21:27.410112","MEAN_MOTION":13.11413861,"ECCENTRICITY":0.00016724,"INCLINATION":87.8828,"RA_OF_ASC_NODE":45.9674,"ARG_OF_PERICENTER":90.0534,"MEAN_ANOMALY":270.0785,"EPHEMERIS_TYPE":0,"CLASSIFICATION_TYPE":"U","NORAD_CAT_ID":45434,"ELEMENT_SET_NO":999,"REV_AT_EPOCH":28622,"BSTAR":-0.00028490909,"MEAN_MOTION_DOT":-8.8e-7,"MEAN_MOTION_DDOT":0},{"OBJECT_NAME":"ONEWEB-0083","OBJECT_ID":"2020-020M","EPOCH":"2026-02-12T00:08:02.828256","MEAN_MOTION":13.11416691,"ECCENTRICITY":0.0001818,"INCLINATION":87.8828,"RA_OF_ASC_NODE":45.9567,"ARG_OF_PERICENTER":91.572,"MEAN_ANOMALY":268.5617,"EPHEMERIS_TYPE":0,"CLASSIFICATION_TYPE":"U","NORAD_CAT_ID":45435,"ELEMENT_SET_NO":999,"REV_AT_EPOCH":28626,"BSTAR":0.0010376,"MEAN_MOTION_DOT":3.8e-6,"MEAN_MOTION_DDOT":0},{"OBJECT_NAME":"ONEWEB-0095","OBJECT_ID":"2020-020N","EPOCH":"2026-02-11T23:54:49.500864","MEAN_MOTION":13.11416632,"ECCENTRICITY":0.00025922,"INCLINATION":87.8832,"RA_OF_ASC_NODE":45.9673,"ARG_OF_PERICENTER":86.3001,"MEAN_ANOMALY":273.8423,"EPHEMERIS_TYPE":0,"CLASSIFICATION_TYPE":"U","NORAD_CAT_ID":45436,"ELEMENT_SET_NO":999,"REV_AT_EPOCH":28626,"BSTAR":0.0015033551,"MEAN_MOTION_DOT":5.46e-6,"MEAN_MOTION_DDOT":0}]
